{
  "norad_id": 40128,
  "name": "GSAT0201 (GALILEO 5)",
  "history": [
    {
      "epoch": "2026-03-26T22:51:03.025440Z",
      "apogee_km": 26247.408566369526,
      "perigee_km": 16951.218051447184,
      "latitude_deg": -1.5071503252742515e-05,
      "longitude_deg": 109.6500151365565,
      "height_km": 26226.4458784803,
      "semi_major_axis_km": 27977.450308908352,
      "eccentricity": 0.1661372,
      "inclination_deg": 48.9652,
      "raan_deg": 276.8011,
      "arg_perigee_deg": 176.1891,
      "mean_anomaly_deg": 185.2559,
      "mean_motion_rev_day": 1.85519926
    }
  ]
}